[{"OBJECT_NAME":"STARLINK-34175","OBJECT_ID":"2025-112Z","EPOCH":"2026-03-09T16:23:07.924704","MEAN_MOTION":15.05642618,"ECCENTRICITY":7.547e-5,"INCLINATION":97.6039,"RA_OF_ASC_NODE":121.4608,"ARG_OF_PERICENTER":102.3314,"MEAN_ANOMALY":257.7998,"EPHEMERIS_TYPE":0,"CLASSIFICATION_TYPE":"U","NORAD_CAT_ID":64169,"ELEMENT_SET_NO":999,"REV_AT_EPOCH":4330,"BSTAR":0.00051192168,"MEAN_MOTION_DOT":7.332e-5,"MEAN_MOTION_DDOT":0},{"OBJECT_NAME":"CZ-6A DEB","OBJECT_ID":"2024-140AB","EPOCH":"2026-03-09T12:39:40.872096","MEAN_MOTION":14.79496195,"ECCENTRICITY":0.02124268,"INCLINATION":89.014,"RA_OF_ASC_NODE":280.9531,"ARG_OF_PERICENTER":168.3647,"MEAN_ANOMALY":192.2602,"EPHEMERIS_TYPE":0,"CLASSIFICATION_TYPE":"U","NORAD_CAT_ID":60626,"ELEMENT_SET_NO":999,"REV_AT_EPOCH":8539,"BSTAR":0.00037700721,"MEAN_MOTION_DOT":4.17e-5,"MEAN_MOTION_DDOT":0}]
